ORBCOMM FM05            
1 25117U 97084F   24221.54253547  .00004180  00000+0  12727-2 0  9993
2 25117  45.0151  66.4674 0002907 107.5532 252.5636 14.43220523395392
ORBCOMM FM06            
1 25118U 97084G   24221.57498859  .00004524  00000+0  13709-2 0  9997
2 25118  45.0143  66.4232 0002265 122.9728 283.5339 14.43327290396315
ORBCOMM FM07            
1 25119U 97084H   24221.56319557  .00004222  00000+0  12850-2 0  9995
2 25119  45.0139  67.0775 0003430  95.2103 264.9139 14.43221251396304
ORBCOMM FM03            
1 25158U 98007B   24221.54157990  .00003514  00000+0  13250-2 0  9991
2 25158 107.9718 214.0896 0045505  74.0901 286.5246 14.32569424379233
ORBCOMM FM04            
1 25159U 98007C   24221.58314451  .00003383  00000+0  12733-2 0  9992
2 25159 107.9704 217.1761 0041127  71.5578 289.0025 14.32835107379419
ORBCOMM FM17            
1 25413U 98046A   24221.54573916  .00002067  00000+0  79203-3 0  9991
2 25413  44.9942 291.5191 0000572 192.7463 167.3369 14.33466968358284
ORBCOMM FM18            
1 25414U 98046B   24220.45908922  .00002376  00000+0  85274-3 0  9998
2 25414  44.9914 221.7978 0002025 167.9758 192.1138 14.36326499359107
ORBCOMM FM19            
1 25415U 98046C   24221.50645990  .00003414  00000+0  12079-2 0  9995
2 25415  44.9926 218.3779 0000887 186.5664 315.8514 14.36170263359219
